APRIZESAT 2             
1 28366U 04025A   26160.35259141  .00000143  00000+0  57883-4 0  9993
2 28366  98.1008 326.7768 0104265 273.7887  85.1385 14.38032818150512
SAUDICOMSAT 1           
1 28369U 04025D   26160.24791683  .00000359  00000+0  93242-4 0  9994
2 28369  98.5772 170.1651 0033096  49.3975 311.0093 14.55467291162973
SAUDICOMSAT 2           
1 28370U 04025E   26159.98234137  .00000267  00000+0  80613-4 0  9997
2 28370  98.6641 171.9962 0054157 284.8764  74.6435 14.49976611158913
APRIZESAT 1             
1 28372U 04025G   26160.29979362  .00000182  00000+0  56773-4 0  9997
2 28372  98.6304 170.8107 0044608 177.6138 182.5277 14.51773007160760
NANOSAT-1               
1 28493U 04049B   26160.32733119  .00000936  00000+0  13066-3 0  9993
2 28493  98.2266 296.7967 0003238 335.4680  24.6376 14.80143947154281
SAUDICOMSAT 7           
1 31119U 07012C   26160.46891001  .00000451  00000+0  90057-4 0  9993
2 31119  98.3774 134.4428 0054801 219.6578 140.0612 14.66102979 21302
SAUDICOMSAT 6           
1 31121U 07012E   26160.42797273  .00000600  00000+0  12425-3 0  9996
2 31121  98.4095 127.8003 0071625 352.0648   7.9414 14.62548617 19059
SAUDICOMSAT 5           
1 31124U 07012H   26160.45311220  .00000514  00000+0  97066-4 0  9995
2 31124  98.3485 135.1756 0048045 148.5749 211.8341 14.68147064 22462
SAUDICOMSAT 3           
1 31125U 07012J   26160.49515066  .00000807  00000+0  13960-3 0  9999
2 31125  98.3140 135.7675 0040485  76.7759 283.7958 14.70692943 23692
SAUDICOMSAT 4           
1 31127U 07012L   26160.50250014  .00000497  00000+0  10125-3 0  9997
2 31127  98.3979 132.9163 0062086 282.7577  76.6690 14.64504604 20163
APRIZESAT 4             
1 35684U 09041D   26160.09779993  .00000574  00000+0  75109-4 0  9999
2 35684  98.1412 235.2570 0042967 349.6861  10.3466 14.83868357910162
APRIZESAT 3             
1 35686U 09041F   26160.40828184  .00001156  00000+0  10431-3 0  9996
2 35686  98.2052 313.2604 0062787  92.7241 268.1167 14.96218059915214
S-NET D                 
1 43186U 18014G   26160.47865341  .00005051  00000+0  26172-3 0  9990
2 43186  97.5368  65.3172 0009590  53.7258 306.4860 15.16600051457591
S-NET B                 
1 43187U 18014H   26160.48995596  .00004950  00000+0  25677-3 0  9994
2 43187  97.5374  65.3148 0010112  48.9883 311.2222 15.16569498457599
S-NET A                 
1 43188U 18014J   26160.47757198  .00004925  00000+0  25521-3 0  9998
2 43188  97.5383  65.5098 0010042  49.7965 310.4145 15.16607695457595
S-NET C                 
1 43189U 18014K   26160.29585110  .00004535  00000+0  23556-3 0  9995
2 43189  97.5401  65.4029 0011246  42.9291 317.2818 15.16559025456116
SALSAT                  
1 46495U 20068K   26160.49232389  .00007245  00000+0  25454-3 0  9999
2 46495  97.8855 163.0891 0008742 339.5990  20.4898 15.29688082314186
OOV-CUBE (TUBSAT-30)    
1 60240U 24128F   26160.53649286  .00002156  00000+0  17279-3 0  9999
2 60240  61.9950 252.2499 0045584 132.0465 228.4520 15.02741636104962
LPNTSAT-001 (IOD-1)     
1 68408U 26065A   26160.23518866  .00002468  00000+0  12254-3 0  9995
2 68408  97.4031  40.9129 0017496  37.3631 322.8816 15.18495128 11058
